start=new Date('2022-07-25T00:00:00.000Z').valueOf();
sats=[{"CLASSIFICATION_TYPE":"U","ELEMENT_SET_NO":"999","OBJECT_ID":"2020-006T","EPHEMERIS_TYPE":"0","RA_OF_ASC_NODE":"110.0281","ARG_OF_PERICENTER":"80.1896","DECAY_DATE":null,"MEAN_ANOMALY":"279.9267","MEAN_MOTION_DOT":"-0.00000299","REF_FRAME":"TEME","RCS_SIZE":"LARGE","APOAPSIS":"548.268","COUNTRY_CODE":"US","OBJECT_NAME":"STARLINK-1169","ECCENTRICITY":"0.00015390","NORAD_CAT_ID":"45061","SITE":"AFETR","REV_AT_EPOCH":"13691","MEAN_ELEMENT_THEORY":"SGP4","CENTER_NAME":"EARTH","OBJECT_TYPE":"PAYLOAD","FILE":"3521124","MEAN_MOTION_DDOT":"0.0000000000000","TIME_SYSTEM":"UTC","PERIOD":"95.592","TLE_LINE2":"2 45061  53.0524 110.0281 0001539  80.1896 279.9267 15.06403768136912","MEAN_MOTION":"15.06403768","INCLINATION":"53.0524","PERIAPSIS":"546.136","GP_ID":"208796568","SEMIMAJOR_AXIS":"6925.337","TLE_LINE1":"1 45061U 20006T   22205.74688693 -.00000299  00000-0 -11512-5 0  9993","EPOCH":"2022-07-24T17:55:31.030752","LAUNCH_DATE":"2020-01-29","BSTAR":"-0.00000115120000"},{"MEAN_MOTION_DDOT":"0.0000000000000","FILE":"3521124","TIME_SYSTEM":"UTC","REV_AT_EPOCH":"13691","SITE":"AFETR","OBJECT_TYPE":"PAYLOAD","CENTER_NAME":"EARTH","MEAN_ELEMENT_THEORY":"SGP4","SEMIMAJOR_AXIS":"6925.333","TLE_LINE1":"1 45062U 20006U   22205.73214019 -.00000389  00000-0 -72214-5 0  9996","GP_ID":"208797311","LAUNCH_DATE":"2020-01-29","BSTAR":"-0.00000722140000","EPOCH":"2022-07-24T17:34:16.912416","INCLINATION":"53.0555","MEAN_MOTION":"15.06405090","PERIOD":"95.592","TLE_LINE2":"2 45062  53.0555 110.0956 0001507  77.9330 282.1828 15.06405090136917","PERIAPSIS":"546.154","DECAY_DATE":null,"ARG_OF_PERICENTER":"77.9330","REF_FRAME":"TEME","RCS_SIZE":"LARGE","MEAN_ANOMALY":"282.1828","MEAN_MOTION_DOT":"-0.00000389","OBJECT_ID":"2020-006U","CLASSIFICATION_TYPE":"U","ELEMENT_SET_NO":"999","RA_OF_ASC_NODE":"110.0956","EPHEMERIS_TYPE":"0","ECCENTRICITY":"0.00015070","NORAD_CAT_ID":"45062","COUNTRY_CODE":"US","APOAPSIS":"548.242","OBJECT_NAME":"STARLINK-1171"},{"OBJECT_ID":"2020-006W","ELEMENT_SET_NO":"999","CLASSIFICATION_TYPE":"U","RA_OF_ASC_NODE":"90.0477","EPHEMERIS_TYPE":"0","DECAY_DATE":null,"ARG_OF_PERICENTER":"75.9542","RCS_SIZE":"LARGE","REF_FRAME":"TEME","MEAN_MOTION_DOT":"0.00000329","MEAN_ANOMALY":"284.1605","COUNTRY_CODE":"US","APOAPSIS":"548.179","OBJECT_NAME":"STARLINK-1133","NORAD_CAT_ID":"45064","ECCENTRICITY":"0.00014210","REV_AT_EPOCH":"13719","SITE":"AFETR","CENTER_NAME":"EARTH","OBJECT_TYPE":"PAYLOAD","MEAN_ELEMENT_THEORY":"SGP4","MEAN_MOTION_DDOT":"0.0000000000000","FILE":"3521124","TIME_SYSTEM":"UTC","MEAN_MOTION":"15.06406104","INCLINATION":"53.0548","TLE_LINE2":"2 45064  53.0548  90.0477 0001421  75.9542 284.1605 15.06406104137197","PERIOD":"95.592","PERIAPSIS":"546.211","TLE_LINE1":"1 45064U 20006W   22205.74503022  .00000329  00000-0  40976-4 0  9995","SEMIMAJOR_AXIS":"6925.330","GP_ID":"208795568","BSTAR":"0.00004097600000","LAUNCH_DATE":"2020-01-29","EPOCH":"2022-07-24T17:52:50.611008"},{"EPOCH":"2022-07-24T16:22:38.606592","LAUNCH_DATE":"2020-01-29","BSTAR":"-0.00002090900000","GP_ID":"208795818","SEMIMAJOR_AXIS":"6925.352","TLE_LINE1":"1 45065U 20006X   22205.68239128 -.00000593  00000-0 -20909-4 0  9991","PERIAPSIS":"546.173","PERIOD":"95.592","TLE_LINE2":"2 45065  53.0546  90.3251 0001507  82.6525 277.4636 15.06399032137189","MEAN_MOTION":"15.06399032","INCLINATION":"53.0546","TIME_SYSTEM":"UTC","FILE":"3521124","MEAN_MOTION_DDOT":"0.0000000000000","MEAN_ELEMENT_THEORY":"SGP4","OBJECT_TYPE":"PAYLOAD","CENTER_NAME":"EARTH","SITE":"AFETR","REV_AT_EPOCH":"13718","ECCENTRICITY":"0.00015070","NORAD_CAT_ID":"45065","OBJECT_NAME":"STARLINK-1139","APOAPSIS":"548.260","COUNTRY_CODE":"US","MEAN_ANOMALY":"277.4636","MEAN_MOTION_DOT":"-0.00000593","REF_FRAME":"TEME","RCS_SIZE":"LARGE","ARG_OF_PERICENTER":"82.6525","DECAY_DATE":null,"EPHEMERIS_TYPE":"0","RA_OF_ASC_NODE":"90.3251","CLASSIFICATION_TYPE":"U","ELEMENT_SET_NO":"999","OBJECT_ID":"2020-006X"},{"APOAPSIS":"548.233","COUNTRY_CODE":"US","OBJECT_NAME":"STARLINK-1145","NORAD_CAT_ID":"45066","ECCENTRICITY":"0.00015230","ELEMENT_SET_NO":"999","CLASSIFICATION_TYPE":"U","OBJECT_ID":"2020-006Y","EPHEMERIS_TYPE":"0","RA_OF_ASC_NODE":"89.5347","ARG_OF_PERICENTER":"76.9611","DECAY_DATE":null,"MEAN_MOTION_DOT":"0.00002428","MEAN_ANOMALY":"283.1548","RCS_SIZE":"LARGE","REF_FRAME":"TEME","TLE_LINE2":"2 45066  53.0535  89.5347 0001523  76.9611 283.1548 15.06411420137209","PERIOD":"95.591","INCLINATION":"53.0535","MEAN_MOTION":"15.06411420","PERIAPSIS":"546.124","GP_ID":"208797068","TLE_LINE1":"1 45066U 20006Y   22205.85561959  .00002428  00000-0  18178-3 0  9992","SEMIMAJOR_AXIS":"6925.314","EPOCH":"2022-07-24T20:32:05.532576","BSTAR":"0.00018178000000","LAUNCH_DATE":"2020-01-29","SITE":"AFETR","REV_AT_EPOCH":"13720","MEAN_ELEMENT_THEORY":"SGP4","CENTER_NAME":"EARTH","OBJECT_TYPE":"PAYLOAD","FILE":"3521124","MEAN_MOTION_DDOT":"0.0000000000000","TIME_SYSTEM":"UTC"},{"MEAN_ANOMALY":"280.7193","MEAN_MOTION_DOT":"0.00001921","REF_FRAME":"TEME","RCS_SIZE":"LARGE","ARG_OF_PERICENTER":"79.3995","DECAY_DATE":null,"EPHEMERIS_TYPE":"0","RA_OF_ASC_NODE":"89.1826","CLASSIFICATION_TYPE":"U","ELEMENT_SET_NO":"999","OBJECT_ID":"2020-006Z","ECCENTRICITY":"0.00017630","NORAD_CAT_ID":"45067","OBJECT_NAME":"STARLINK-1150","APOAPSIS":"548.428","COUNTRY_CODE":"US","TIME_SYSTEM":"UTC","FILE":"3521124","MEAN_MOTION_DDOT":"0.0000000000000","MEAN_ELEMENT_THEORY":"SGP4","OBJECT_TYPE":"PAYLOAD","CENTER_NAME":"EARTH","SITE":"AFETR","REV_AT_EPOCH":"13722","EPOCH":"2022-07-24T22:28:52.885344","LAUNCH_DATE":"2020-01-29","BSTAR":"0.00014783000000","GP_ID":"208796812","SEMIMAJOR_AXIS":"6925.342","TLE_LINE1":"1 45067U 20006Z   22205.93672321  .00001921  00000-0  14783-3 0  9993","PERIAPSIS":"545.986","PERIOD":"95.592","TLE_LINE2":"2 45067  53.0571  89.1826 0001763  79.3995 280.7193 15.06402199137220","INCLINATION":"53.0571","MEAN_MOTION":"15.06402199"},{"OBJECT_NAME":"STARLINK-1161","COUNTRY_CODE":"US","APOAPSIS":"548.198","NORAD_CAT_ID":"45068","ECCENTRICITY":"0.00013900","RA_OF_ASC_NODE":"89.4758","EPHEMERIS_TYPE":"0","OBJECT_ID":"2020-006AA","ELEMENT_SET_NO":"999","CLASSIFICATION_TYPE":"U","RCS_SIZE":"LARGE","REF_FRAME":"TEME","MEAN_MOTION_DOT":"0.00002296","MEAN_ANOMALY":"259.8421","DECAY_DATE":null,"ARG_OF_PERICENTER":"100.2724","PERIAPSIS":"546.273","INCLINATION":"53.0561","MEAN_MOTION":"15.06392894","TLE_LINE2":"2 45068  53.0561  89.4758 0001390 100.2724 259.8421 15.06392894137206","PERIOD":"95.593","BSTAR":"0.00017298000000","LAUNCH_DATE":"2020-01-29","EPOCH":"2022-07-24T20:14:48.113088","TLE_LINE1":"1 45068U 20006AA  22205.84361242  .00002296  00000-0  17298-3 0  9991","SEMIMAJOR_AXIS":"6925.370","GP_ID":"208796067","OBJECT_TYPE":"PAYLOAD","CENTER_NAME":"EARTH","MEAN_ELEMENT_THEORY":"SGP4","REV_AT_EPOCH":"13720","SITE":"AFETR","TIME_SYSTEM":"UTC","MEAN_MOTION_DDOT":"0.0000000000000","FILE":"3521124"},{"MEAN_MOTION_DDOT":"0.0000000000000","FILE":"3521124","TIME_SYSTEM":"UTC","REV_AT_EPOCH":"13720","SITE":"AFETR","CENTER_NAME":"EARTH","OBJECT_TYPE":"PAYLOAD","MEAN_ELEMENT_THEORY":"SGP4","TLE_LINE1":"1 45071U 20006AD  22205.83719763  .00001979  00000-0  15172-3 0  9995","SEMIMAJOR_AXIS":"6925.333","GP_ID":"208796317","LAUNCH_DATE":"2020-01-29","BSTAR":"0.00015172000000","EPOCH":"2022-07-24T20:05:33.875232","INCLINATION":"53.0542","MEAN_MOTION":"15.06405021","PERIOD":"95.592","TLE_LINE2":"2 45071  53.0542  89.6291 0001444  72.9468 287.1679 15.06405021137209","PERIAPSIS":"546.198","DECAY_DATE":null,"ARG_OF_PERICENTER":"72.9468","REF_FRAME":"TEME","RCS_SIZE":"LARGE","MEAN_ANOMALY":"287.1679","MEAN_MOTION_DOT":"0.00001979","OBJECT_ID":"2020-006AD","CLASSIFICATION_TYPE":"U","ELEMENT_SET_NO":"999","RA_OF_ASC_NODE":"89.6291","EPHEMERIS_TYPE":"0","ECCENTRICITY":"0.00014440","NORAD_CAT_ID":"45071","COUNTRY_CODE":"US","APOAPSIS":"548.198","OBJECT_NAME":"STARLINK-1167"},{"OBJECT_NAME":"STARLINK-1168","APOAPSIS":"548.249","COUNTRY_CODE":"US","ECCENTRICITY":"0.00015050","NORAD_CAT_ID":"45072","EPHEMERIS_TYPE":"0","RA_OF_ASC_NODE":"89.6183","CLASSIFICATION_TYPE":"U","ELEMENT_SET_NO":"999","OBJECT_ID":"2020-006AE","MEAN_ANOMALY":"279.1231","MEAN_MOTION_DOT":"0.00000195","REF_FRAME":"TEME","RCS_SIZE":"LARGE","ARG_OF_PERICENTER":"80.9929","DECAY_DATE":null,"PERIAPSIS":"546.165","PERIOD":"95.592","TLE_LINE2":"2 45072  53.0562  89.6183 0001505  80.9929 279.1231 15.06402068137204","INCLINATION":"53.0562","MEAN_MOTION":"15.06402068","EPOCH":"2022-07-24T20:10:51.953376","LAUNCH_DATE":"2020-01-29","BSTAR":"0.00003196700000","GP_ID":"208796569","TLE_LINE1":"1 45072U 20006AE  22205.84087909  .00000195  00000-0  31967-4 0  9997","SEMIMAJOR_AXIS":"6925.342","MEAN_ELEMENT_THEORY":"SGP4","OBJECT_TYPE":"PAYLOAD","CENTER_NAME":"EARTH","SITE":"AFETR","REV_AT_EPOCH":"13720","TIME_SYSTEM":"UTC","FILE":"3521124","MEAN_MOTION_DDOT":"0.0000000000000"},{"MEAN_ELEMENT_THEORY":"SGP4","OBJECT_TYPE":"PAYLOAD","CENTER_NAME":"EARTH","SITE":"AFETR","REV_AT_EPOCH":"13721","TIME_SYSTEM":"UTC","FILE":"3521124","MEAN_MOTION_DDOT":"0.0000000000000","PERIAPSIS":"545.995","PERIOD":"95.592","TLE_LINE2":"2 45073  53.0539  89.1849 0001749  68.4332 291.6844 15.06402400137212","INCLINATION":"53.0539","MEAN_MOTION":"15.06402400","EPOCH":"2022-07-24T22:23:33.864576","LAUNCH_DATE":"2020-01-29","BSTAR":"0.00067081000000","GP_ID":"208797312","SEMIMAJOR_AXIS":"6925.341","TLE_LINE1":"1 45073U 20006AF  22205.93303084  .00009725  00000-0  67081-3 0  9996","EPHEMERIS_TYPE":"0","RA_OF_ASC_NODE":"89.1849","CLASSIFICATION_TYPE":"U","ELEMENT_SET_NO":"999","OBJECT_ID":"2020-006AF","MEAN_ANOMALY":"291.6844","MEAN_MOTION_DOT":"0.00009725","REF_FRAME":"TEME","RCS_SIZE":"LARGE","ARG_OF_PERICENTER":"68.4332","DECAY_DATE":null,"OBJECT_NAME":"STARLINK-1170","APOAPSIS":"548.417","COUNTRY_CODE":"US","ECCENTRICITY":"0.00017490","NORAD_CAT_ID":"45073"}];
